start=new Date('2023-03-29T00:00:00.000Z').valueOf();
sats=[{"TLE_LINE2":"2 46164  53.0559  71.6171 0001551  99.0941 261.0224 15.06404208145554","OBJECT_ID":"2020-057AZ","PERIAPSIS":"546.127","REV_AT_EPOCH":"14555","MEAN_MOTION":"15.06404208","TLE_LINE1":"1 46164U 20057AZ  23087.65414583  .00016617  00000-0  11317-2 0  9997","SEMIMAJOR_AXIS":"6925.336","MEAN_MOTION_DOT":"0.00016617","COUNTRY_CODE":"US","OBJECT_TYPE":"PAYLOAD","TIME_SYSTEM":"UTC","MEAN_ANOMALY":"261.0224","OBJECT_NAME":"STARLINK-1612","ECCENTRICITY":"0.00015510","GP_ID":"229063642","APOAPSIS":"548.275","RCS_SIZE":"LARGE","LAUNCH_DATE":"2020-08-18","MEAN_ELEMENT_THEORY":"SGP4","DECAY_DATE":null,"MEAN_MOTION_DDOT":"0.0000000000000","REF_FRAME":"TEME","CENTER_NAME":"EARTH","CLASSIFICATION_TYPE":"U","BSTAR":"0.00113170000000","ARG_OF_PERICENTER":"99.0941","RA_OF_ASC_NODE":"71.6171","PERIOD":"95.592","FILE":"3873921","INCLINATION":"53.0559","NORAD_CAT_ID":"46164","EPHEMERIS_TYPE":"0","EPOCH":"2023-03-28T15:41:58.199712","SITE":"AFETR","ELEMENT_SET_NO":"999"},{"TLE_LINE1":"1 46165U 20057BA  23087.26459441  .00025101  00000-0  88939-3 0  9990","SEMIMAJOR_AXIS":"6857.031","COUNTRY_CODE":"US","MEAN_MOTION_DOT":"0.00025101","OBJECT_TYPE":"PAYLOAD","TIME_SYSTEM":"UTC","MEAN_ANOMALY":"319.3685","OBJECT_NAME":"STARLINK-1613","ECCENTRICITY":"0.00056780","TLE_LINE2":"2 46165  53.0623  83.3706 0005678  40.7738 319.3685 15.28968629144106","OBJECT_ID":"2020-057BA","PERIAPSIS":"475.003","REV_AT_EPOCH":"14410","MEAN_MOTION":"15.28968629","CLASSIFICATION_TYPE":"U","BSTAR":"0.00088939000000","ARG_OF_PERICENTER":"40.7738","RA_OF_ASC_NODE":"83.3706","PERIOD":"94.181","FILE":"3873565","NORAD_CAT_ID":"46165","INCLINATION":"53.0623","EPHEMERIS_TYPE":"0","EPOCH":"2023-03-28T06:21:00.957024","SITE":"AFETR","ELEMENT_SET_NO":"999","GP_ID":"229030481","APOAPSIS":"482.790","RCS_SIZE":"LARGE","LAUNCH_DATE":"2020-08-18","MEAN_ELEMENT_THEORY":"SGP4","DECAY_DATE":null,"MEAN_MOTION_DDOT":"0.0000000000000","REF_FRAME":"TEME","CENTER_NAME":"EARTH"},{"COUNTRY_CODE":"US","MEAN_MOTION_DOT":"0.00018829","OBJECT_TYPE":"PAYLOAD","TIME_SYSTEM":"UTC","SEMIMAJOR_AXIS":"6925.306","TLE_LINE1":"1 46166U 20057BB  23087.77209869  .00018829  00000-0  12791-2 0  9995","ECCENTRICITY":"0.00014120","OBJECT_NAME":"STARLINK-1615","MEAN_ANOMALY":"273.3863","TLE_LINE2":"2 46166  53.0521 111.0869 0001412  86.7287 273.3863 15.06413899143751","MEAN_MOTION":"15.06413899","REV_AT_EPOCH":"14375","PERIAPSIS":"546.193","OBJECT_ID":"2020-057BB","PERIOD":"95.591","FILE":"3873921","RA_OF_ASC_NODE":"111.0869","ARG_OF_PERICENTER":"86.7287","CLASSIFICATION_TYPE":"U","BSTAR":"0.00127910000000","ELEMENT_SET_NO":"999","SITE":"AFETR","EPOCH":"2023-03-28T18:31:49.326816","EPHEMERIS_TYPE":"0","NORAD_CAT_ID":"46166","INCLINATION":"53.0521","MEAN_MOTION_DDOT":"0.0000000000000","MEAN_ELEMENT_THEORY":"SGP4","DECAY_DATE":null,"LAUNCH_DATE":"2020-08-18","APOAPSIS":"548.149","GP_ID":"229063141","RCS_SIZE":"LARGE","REF_FRAME":"TEME","CENTER_NAME":"EARTH"},{"ARG_OF_PERICENTER":"87.2778","CLASSIFICATION_TYPE":"U","BSTAR":"0.00159450000000","FILE":"3873921","PERIOD":"95.590","RA_OF_ASC_NODE":"111.0225","EPHEMERIS_TYPE":"0","NORAD_CAT_ID":"46167","INCLINATION":"53.0536","ELEMENT_SET_NO":"999","SITE":"AFETR","EPOCH":"2023-03-28T18:53:04.692768","LAUNCH_DATE":"2020-08-18","RCS_SIZE":"LARGE","APOAPSIS":"548.101","GP_ID":"229062891","MEAN_MOTION_DDOT":"0.0000000000000","DECAY_DATE":null,"MEAN_ELEMENT_THEORY":"SGP4","REF_FRAME":"TEME","CENTER_NAME":"EARTH","TLE_LINE1":"1 46167U 20057BC  23087.78685987  .00023571  00000-0  15945-2 0  9990","TIME_SYSTEM":"UTC","MEAN_MOTION_DOT":"0.00023571","COUNTRY_CODE":"US","OBJECT_TYPE":"PAYLOAD","SEMIMAJOR_AXIS":"6925.240","OBJECT_NAME":"STARLINK-1626","MEAN_ANOMALY":"272.8376","ECCENTRICITY":"0.00014390","TLE_LINE2":"2 46167  53.0536 111.0225 0001439  87.2778 272.8376 15.06435515143756","OBJECT_ID":"2020-057BC","REV_AT_EPOCH":"14375","MEAN_MOTION":"15.06435515","PERIAPSIS":"546.108"},{"ECCENTRICITY":"0.00012260","OBJECT_NAME":"STARLINK-1627","MEAN_ANOMALY":"257.4923","TIME_SYSTEM":"UTC","OBJECT_TYPE":"PAYLOAD","COUNTRY_CODE":"US","MEAN_MOTION_DOT":"0.00024436","SEMIMAJOR_AXIS":"6925.391","TLE_LINE1":"1 46168U 20057BD  23087.30123361  .00024436  00000-0  16543-2 0  9998","MEAN_MOTION":"15.06386222","REV_AT_EPOCH":"14437","PERIAPSIS":"546.407","OBJECT_ID":"2020-057BD","TLE_LINE2":"2 46168  53.0541  63.2880 0001226 102.6203 257.4923 15.06386222144373","ELEMENT_SET_NO":"999","SITE":"AFETR","EPOCH":"2023-03-28T07:13:46.583904","EPHEMERIS_TYPE":"0","INCLINATION":"53.0541","NORAD_CAT_ID":"46168","FILE":"3873565","PERIOD":"95.593","RA_OF_ASC_NODE":"63.2880","ARG_OF_PERICENTER":"102.6203","CLASSIFICATION_TYPE":"U","BSTAR":"0.00165430000000","CENTER_NAME":"EARTH","REF_FRAME":"TEME","MEAN_MOTION_DDOT":"0.0000000000000","DECAY_DATE":null,"MEAN_ELEMENT_THEORY":"SGP4","LAUNCH_DATE":"2020-08-18","RCS_SIZE":"LARGE","GP_ID":"229030248","APOAPSIS":"548.105"},{"EPOCH":"2023-03-28T19:14:21.792768","SITE":"AFETR","ELEMENT_SET_NO":"999","INCLINATION":"53.0553","NORAD_CAT_ID":"46169","EPHEMERIS_TYPE":"0","RA_OF_ASC_NODE":"111.3414","FILE":"3873921","PERIOD":"95.591","CLASSIFICATION_TYPE":"U","BSTAR":"0.00098944000000","ARG_OF_PERICENTER":"91.8131","REF_FRAME":"TEME","CENTER_NAME":"EARTH","DECAY_DATE":null,"MEAN_ELEMENT_THEORY":"SGP4","MEAN_MOTION_DDOT":"0.0000000000000","RCS_SIZE":"LARGE","APOAPSIS":"548.352","GP_ID":"229063871","LAUNCH_DATE":"2020-08-18","ECCENTRICITY":"0.00016940","MEAN_ANOMALY":"268.3052","OBJECT_NAME":"STARLINK-1628","SEMIMAJOR_AXIS":"6925.314","TIME_SYSTEM":"UTC","MEAN_MOTION_DOT":"0.00014491","COUNTRY_CODE":"US","OBJECT_TYPE":"PAYLOAD","TLE_LINE1":"1 46169U 20057BE  23087.80164112  .00014491  00000-0  98944-3 0  9999","PERIAPSIS":"546.006","REV_AT_EPOCH":"14369","MEAN_MOTION":"15.06411326","OBJECT_ID":"2020-057BE","TLE_LINE2":"2 46169  53.0553 111.3414 0001694  91.8131 268.3052 15.06411326143695"},{"RA_OF_ASC_NODE":"91.4260","FILE":"3873921","PERIOD":"95.592","BSTAR":"0.00084358000000","CLASSIFICATION_TYPE":"U","ARG_OF_PERICENTER":"93.3163","EPOCH":"2023-03-28T16:43:00.811488","ELEMENT_SET_NO":"999","SITE":"AFETR","NORAD_CAT_ID":"46171","INCLINATION":"53.0539","EPHEMERIS_TYPE":"0","DECAY_DATE":null,"MEAN_ELEMENT_THEORY":"SGP4","MEAN_MOTION_DDOT":"0.0000000000000","RCS_SIZE":"LARGE","APOAPSIS":"548.330","GP_ID":"229062643","LAUNCH_DATE":"2020-08-18","CENTER_NAME":"EARTH","REF_FRAME":"TEME","SEMIMAJOR_AXIS":"6925.330","TIME_SYSTEM":"UTC","OBJECT_TYPE":"PAYLOAD","COUNTRY_CODE":"US","MEAN_MOTION_DOT":"0.00012308","TLE_LINE1":"1 46171U 20057BG  23087.69653717  .00012308  00000-0  84358-3 0  9992","ECCENTRICITY":"0.00016400","MEAN_ANOMALY":"266.8014","OBJECT_NAME":"STARLINK-1633","TLE_LINE2":"2 46171  53.0539  91.4260 0001640  93.3163 266.8014 15.06406145145272","PERIAPSIS":"546.059","MEAN_MOTION":"15.06406145","REV_AT_EPOCH":"14527","OBJECT_ID":"2020-057BG"},{"OBJECT_NAME":"STARLINK-1635","MEAN_ANOMALY":"261.2542","ECCENTRICITY":"0.00013600","TLE_LINE1":"1 46172U 20057BH  23087.71128140  .00015569  00000-0  10617-2 0  9991","TIME_SYSTEM":"UTC","OBJECT_TYPE":"PAYLOAD","COUNTRY_CODE":"US","MEAN_MOTION_DOT":"0.00015569","SEMIMAJOR_AXIS":"6925.338","OBJECT_ID":"2020-057BH","MEAN_MOTION":"15.06403491","REV_AT_EPOCH":"14527","PERIAPSIS":"546.261","TLE_LINE2":"2 46172  53.0533  91.3604 0001360  98.8601 261.2542 15.06403491145270","EPHEMERIS_TYPE":"0","NORAD_CAT_ID":"46172","INCLINATION":"53.0533","SITE":"AFETR","ELEMENT_SET_NO":"999","EPOCH":"2023-03-28T17:04:14.712960","ARG_OF_PERICENTER":"98.8601","CLASSIFICATION_TYPE":"U","BSTAR":"0.00106170000000","FILE":"3873921","PERIOD":"95.592","RA_OF_ASC_NODE":"91.3604","REF_FRAME":"TEME","CENTER_NAME":"EARTH","LAUNCH_DATE":"2020-08-18","RCS_SIZE":"LARGE","GP_ID":"229063392","APOAPSIS":"548.145","MEAN_MOTION_DDOT":"0.0000000000000","DECAY_DATE":null,"MEAN_ELEMENT_THEORY":"SGP4"},{"PERIOD":"95.592","FILE":"3873921","RA_OF_ASC_NODE":"111.1512","ARG_OF_PERICENTER":"102.2345","BSTAR":"0.00118190000000","CLASSIFICATION_TYPE":"U","SITE":"AFETR","ELEMENT_SET_NO":"999","EPOCH":"2023-03-28T18:10:35.645664","EPHEMERIS_TYPE":"0","NORAD_CAT_ID":"46173","INCLINATION":"53.0544","MEAN_MOTION_DDOT":"0.0000000000000","MEAN_ELEMENT_THEORY":"SGP4","DECAY_DATE":null,"LAUNCH_DATE":"2020-08-18","APOAPSIS":"548.029","GP_ID":"229063643","RCS_SIZE":"LARGE","REF_FRAME":"TEME","CENTER_NAME":"EARTH","COUNTRY_CODE":"US","MEAN_MOTION_DOT":"0.00017370","OBJECT_TYPE":"PAYLOAD","TIME_SYSTEM":"UTC","SEMIMAJOR_AXIS":"6925.328","TLE_LINE1":"1 46173U 20057BJ  23087.75735701  .00017370  00000-0  11819-2 0  9990","ECCENTRICITY":"0.00012070","OBJECT_NAME":"STARLINK-1640","MEAN_ANOMALY":"257.8779","TLE_LINE2":"2 46173  53.0544 111.1512 0001207 102.2345 257.8779 15.06406610143746","REV_AT_EPOCH":"14374","MEAN_MOTION":"15.06406610","PERIAPSIS":"546.357","OBJECT_ID":"2020-057BJ"},{"CENTER_NAME":"EARTH","REF_FRAME":"TEME","RCS_SIZE":"LARGE","GP_ID":"229064372","APOAPSIS":"548.130","LAUNCH_DATE":"2020-08-18","DECAY_DATE":null,"MEAN_ELEMENT_THEORY":"SGP4","MEAN_MOTION_DDOT":"0.0000000000000","NORAD_CAT_ID":"46174","INCLINATION":"53.0540","EPHEMERIS_TYPE":"0","EPOCH":"2023-03-28T18:21:12.447360","SITE":"AFETR","ELEMENT_SET_NO":"999","CLASSIFICATION_TYPE":"U","BSTAR":"0.00094581000000","ARG_OF_PERICENTER":"91.4015","RA_OF_ASC_NODE":"111.1186","FILE":"3873921","PERIOD":"95.592","OBJECT_ID":"2020-057BK","PERIAPSIS":"546.265","MEAN_MOTION":"15.06405274","REV_AT_EPOCH":"14374","TLE_LINE2":"2 46174  53.0540 111.1186 0001346  91.4015 268.7128 15.06405274143741","MEAN_ANOMALY":"268.7128","OBJECT_NAME":"STARLINK-1641","ECCENTRICITY":"0.00013460","TLE_LINE1":"1 46174U 20057BK  23087.76472740  .00013836  00000-0  94581-3 0  9994","SEMIMAJOR_AXIS":"6925.332","TIME_SYSTEM":"UTC","OBJECT_TYPE":"PAYLOAD","COUNTRY_CODE":"US","MEAN_MOTION_DOT":"0.00013836"}];
